SENTINEL-6              
1 46984U 20086A   24181.56765570 -.00000027  00000+0  14684-3 0  9999
2 46984  66.0387 185.5557 0007965 270.2116  89.7987 12.80929457168410
